{"type":"FeatureCollection","name":"changchun-road-basemap-v2","metadata":{"crs":"EPSG:4326","coordinate_order":"longitude,latitude","source_url":"https://overpass-api.de/ and compatible Overpass API instances","source_date":"2026-08-13","source_sha256":"80cf13c6536841a0e0c3d8b49be550bd7cca70a68231f001933fb60ccb874bcf","source_files":["context.json:3519a65aa673deffe8e7f41774822a1c87cb22c1affe4450144659b1c73a2381","roads-ne.json:a6aa32df1fc0f1987f736ad8114aa23cac6ac19e221c0fd09501df24d250822c","roads-nw.json:99e9e4e3c7fdad393227952775dce40f30cd39c11ab537d73b0767f95425936b","roads-se.json:e4a1b4f08b676e3c9dc1af632870a6e95053cc73a488f6ce05c8f4c1d2d4a2f5","roads-sw.json:f06758ac076749728eb5fbd77f563d06e6d0591755f3940d206b2631afbc8580"],"license":"ODbL 1.0","attribution":"© OpenStreetMap contributors","clip_bounds":[125.15,43.6,125.6,44.1],"simplification_method":"Douglas-Peucker after Liang-Barsky clipping","simplification_tolerance_degrees":{"motorway":0.00012,"motorway_link":0.00008,"trunk":0.00012,"trunk_link":0.00008,"primary":0.0001,"primary_link":0.00007,"secondary":0.00009,"secondary_link":0.00006,"tertiary":0.00007,"tertiary_link":0.00005,"railway":0.0001,"waterway":0.00008},"supplemental_source":"OpenStreetMap way geometry for 北青年路, queried 2026-08-14","generator_version":"build-changchun-basemap-v2"},"features":[{"type":"Feature","properties":{"layer":"motorway","name":"G12"},"geometry":{"type":"LineString","coordinates":[[125.4579585,43.8950603],[125.4583632,43.8951962]]}},{"type":"Feature","properties":{"layer":"motorway","name":"G2501"},"geometry":{"type":"MultiLineString","coordinates":[[[125.2024933,43.7357063],[125.2024023,43.7344882],[125.2018901,43.7336921],[125.2009377,43.7333358],[125.2000734,43.733618],[125.1998653,43.7340801],[125.2001118,43.7345377],[125.2017909,43.7356652]],[[125.2024995,43.7367265],[125.2024933,43.7357063]],[[125.2025394,43.7420382],[125.2024995,43.7367265]],[[125.2074885,43.7392045],[125.2055801,43.7383393],[125.2040916,43.7382518],[125.2035449,43.7385023],[125.2030061,43.739155],[125.2027023,43.740327]]]}},{"type":"Feature","properties":{"layer":"motorway","name":"京哈高速"},"geometry":{"type":"MultiLineString","coordinates":[[[125.15,43.7126081],[125.1561172,43.7152133],[125.1761721,43.7220994],[125.1818284,43.7244576],[125.1882851,43.7276418],[125.2017909,43.7356652]],[[125.2074885,43.7392045],[125.1901901,43.728885],[125.1817309,43.7245391],[125.1761047,43.7222046],[125.1560335,43.715304],[125.15,43.7127427]]]}},{"type":"Feature","properties":{"layer":"motorway","name":"延长高速"},"geometry":{"type":"MultiLineString","coordinates":[[[125.4952239,43.8499198],[125.496199,43.8478379],[125.4969233,43.846832],[125.4979594,43.8455478],[125.4993838,43.8442403],[125.5022368,43.8424349],[125.506338,43.8410222],[125.5085256,43.840741],[125.5122146,43.8406709],[125.517384,43.8416126],[125.5220806,43.8429971],[125.524022,43.8433894],[125.5286554,43.8439439],[125.5327339,43.8438592],[125.5360635,43.8434744],[125.5397762,43.842605],[125.5440265,43.8409645]],[[125.5440974,43.8410428],[125.5398273,43.8426911],[125.5360937,43.8435655],[125.5327463,43.8439524],[125.5286479,43.8440375],[125.5239916,43.8434803],[125.5220389,43.8430857],[125.5173397,43.8417006],[125.5122006,43.8407642],[125.5085421,43.8408339],[125.5063748,43.8411125],[125.5023086,43.8425131],[125.4994831,43.8443005],[125.4980669,43.8456004],[125.4970369,43.8468771],[125.4957715,43.8490757],[125.4954421,43.8499799]],[[125.578199,43.7152052],[125.5784404,43.7196678],[125.5789447,43.7218311],[125.5834615,43.7362204],[125.5839229,43.7398714],[125.583702,43.7428684],[125.5830931,43.7452336],[125.5779898,43.7560465],[125.5772495,43.759952],[125.5773568,43.7621992],[125.5786443,43.7678166],[125.5816162,43.7750371],[125.5825925,43.7777485],[125.5830216,43.7795379]],[[125.5828934,43.7795516],[125.5824657,43.7777683],[125.5814913,43.7750622],[125.5785177,43.7678376],[125.5772275,43.762207],[125.5771197,43.7599495],[125.5778635,43.7560249],[125.5829679,43.7452092],[125.5835731,43.7428587],[125.5837931,43.7398719],[125.5833339,43.7362376],[125.5788177,43.7218501],[125.5783118,43.71968],[125.5780695,43.7151989]],[[125.5863074,43.6678647],[125.5927078,43.6580257],[125.5938195,43.6558292],[125.5946321,43.6534775],[125.5955739,43.6487232],[125.5962822,43.6396374],[125.5966488,43.6376868]],[[125.596776,43.6377058],[125.5964112,43.6396469],[125.5957031,43.6487306],[125.594759,43.653497],[125.5939436,43.6558568],[125.5928278,43.6580612],[125.5864964,43.6678527]]]}},{"type":"Feature","properties":{"layer":"motorway","name":"珲乌高速"},"geometry":{"type":"MultiLineString","coordinates":[[[125.2768551,44.0196317],[125.2795863,44.0155001],[125.2810861,44.0124461]],[[125.2812,44.0125229],[125.2797117,44.0155441],[125.2769581,44.019722]],[[125.2867484,44.0003185],[125.2897993,43.9955237],[125.2935501,43.990349]],[[125.2936701,43.9904016],[125.2898894,43.9956232],[125.2869468,44.0003646]],[[125.4489714,43.8912206],[125.4533317,43.8932815],[125.4579585,43.8950603]],[[125.4579345,43.8952175],[125.4532535,43.893414],[125.4479975,43.8909603],[125.4441543,43.8894374],[125.4427285,43.8886244]]]}},{"type":"Feature","properties":{"layer":"motorway","name":"长吉高速"},"geometry":{"type":"MultiLineString","coordinates":[[[125.4583632,43.8951962],[125.4938593,43.9057683],[125.5005137,43.9075047],[125.5101672,43.9093478],[125.5258186,43.9114145],[125.5314552,43.9125441],[125.5384777,43.9143549],[125.5465321,43.9170046],[125.5622598,43.9235099],[125.5667652,43.9251996],[125.572076,43.9269601],[125.5830035,43.9299344],[125.5893828,43.9321625],[125.595915,43.9350319],[125.6,43.9371059]],[[125.6,43.9373344],[125.5957433,43.9351688],[125.5892216,43.9323039],[125.5828508,43.9300787],[125.5719253,43.927105],[125.5666066,43.9253419],[125.5620966,43.9236505],[125.5463717,43.9171463],[125.5383282,43.9145002],[125.5313147,43.9126917],[125.5256851,43.9115635],[125.5100376,43.9094975],[125.5003723,43.9076521],[125.4937096,43.9059136],[125.4614129,43.8963581]]]}},{"type":"Feature","properties":{"layer":"motorway","name":"长太高速"},"geometry":{"type":"MultiLineString","coordinates":[[[125.15,44.0109504],[125.1554373,44.0073902],[125.1691487,43.9962385]],[[125.1692238,43.9963003],[125.1554909,44.0074597],[125.15,44.0110556]],[[125.1696479,43.9958097],[125.1756182,43.9910594],[125.1787296,43.9889058],[125.1854153,43.98477]],[[125.185544,43.9848626],[125.1788369,43.9889907],[125.175747,43.9911212],[125.1697086,43.9958946]],[[125.198145,43.9773665],[125.2075548,43.971882]],[[125.2077965,43.9719876],[125.1983732,43.9774444]]]}},{"type":"Feature","properties":{"layer":"motorway","name":"长春绕城高速"},"geometry":{"type":"MultiLineString","coordinates":[[[125.15,43.9041369],[125.1662515,43.9243352],[125.1701513,43.9282495],[125.176455,43.9333929]],[[125.1763381,43.9334719],[125.170441,43.9286619],[125.1660759,43.9243015],[125.15,43.9043017]],[[125.2393887,43.7535971],[125.2648091,43.7605397],[125.2707674,43.7625621],[125.27739,43.765143]],[[125.2772921,43.7652695],[125.2709644,43.7627422],[125.263703,43.7603281],[125.2393358,43.7536913]],[[125.2914739,43.7717948],[125.302814,43.7772127],[125.3116861,43.7807651],[125.3170902,43.7825855],[125.3317047,43.7866045]],[[125.3316222,43.7867589],[125.3200155,43.783591],[125.3134725,43.7815066],[125.308071,43.7795425],[125.2985007,43.7753594],[125.2913768,43.7718796]]]}},{"type":"Feature","properties":{"layer":"motorway","name":"长深高速"},"geometry":{"type":"MultiLineString","coordinates":[[[125.15,43.8681938],[125.1694752,43.8687561]],[[125.1695197,43.8689365],[125.15,43.8683357]]]}},{"type":"Feature","properties":{"layer":"motorway","name":"长长高速"},"geometry":{"type":"MultiLineString","coordinates":[[[125.3049422,43.6186995],[125.305184,43.6]],[[125.3051154,43.6195742],[125.3050695,43.6319414],[125.3058767,43.6386198],[125.3068949,43.6422906],[125.315445,43.6671118]],[[125.3053263,43.6],[125.3051101,43.6187034]],[[125.3152784,43.6671673],[125.3067194,43.64232],[125.3056984,43.6386386],[125.3048894,43.6319451],[125.3049414,43.6195838]],[[125.3267748,43.7060714],[125.3315093,43.7137448],[125.3328002,43.7161054],[125.334108,43.7190906],[125.3354893,43.7233033],[125.3362832,43.7264934],[125.3367922,43.7295413],[125.3370684,43.7327784],[125.3369149,43.7382867],[125.3359781,43.7438187],[125.3347644,43.7478529],[125.331881,43.7552546],[125.3309691,43.7584221],[125.3304058,43.7612499],[125.3299921,43.7651038],[125.3300632,43.7725174],[125.3297222,43.7774284]],[[125.3294881,43.7774303],[125.3298224,43.7725184],[125.3297406,43.7651765],[125.3301765,43.7611405],[125.331647,43.7552125],[125.3345297,43.7478132],[125.3357387,43.7437872],[125.3366708,43.7382756],[125.3368257,43.7327872],[125.3365535,43.7295592],[125.3360398,43.7265152],[125.3352512,43.7233373],[125.334224,43.7202687],[125.3331592,43.717521],[125.3312796,43.7140109],[125.3265522,43.706133]]]}},{"type":"Feature","properties":{"layer":"place_label","name":"二道区"},"geometry":{"type":"Point","coordinates":[125.3682092,43.862787]}},{"type":"Feature","properties":{"layer":"place_label","name":"净月街道"},"geometry":{"type":"Point","coordinates":[125.4360444,43.8332321]}},{"type":"Feature","properties":{"layer":"place_label","name":"南关区"},"geometry":{"type":"Point","coordinates":[125.343732,43.8612479]}},{"type":"Feature","properties":{"layer":"place_label","name":"宽城区"},"geometry":{"type":"Point","coordinates":[125.3203579,43.940923]}},{"type":"Feature","properties":{"layer":"place_label","name":"朝阳区"},"geometry":{"type":"Point","coordinates":[125.2705444,43.8477471]}},{"type":"Feature","properties":{"layer":"place_label","name":"绿园区"},"geometry":{"type":"Point","coordinates":[125.2497802,43.8783236]}},{"type":"Feature","properties":{"layer":"place_label","name":"长春净月高新技术产业开发区"},"geometry":{"type":"Point","coordinates":[125.417268,43.779539]}},{"type":"Feature","properties":{"layer":"place_label","name":"长春北湖科技开发区"},"geometry":{"type":"Point","coordinates":[125.3762575,43.9681075]}},{"type":"Feature","properties":{"layer":"place_label","name":"长春市"},"geometry":{"type":"Point","coordinates":[125.3181675,43.8844844]}},{"type":"Feature","properties":{"layer":"place_label","name":"长春汽车经济技术开发区"},"geometry":{"type":"Point","coordinates":[125.1719067,43.8302008]}},{"type":"Feature","properties":{"layer":"place_label","name":"长春高新技术产业开发区"},"geometry":{"type":"Point","coordinates":[125.2524398,43.7862534]}},{"type":"Feature","properties":{"layer":"primary","name":"东南湖大路"},"geometry":{"type":"MultiLineString","coordinates":[[[125.3715399,43.849151],[125.3719974,43.8492875],[125.3844574,43.84927],[125.3857274,43.8494354],[125.3929104,43.8494682]],[[125.3928477,43.8495987],[125.3858285,43.8495384],[125.3844871,43.849351],[125.3802052,43.8494727],[125.3719957,43.8493903],[125.3715129,43.8495425]],[[125.4877915,43.8578174],[125.4950184,43.8579718],[125.4978014,43.8582857],[125.5070174,43.8609564],[125.5091246,43.8620702]],[[125.5089062,43.8621144],[125.50576,43.8607268],[125.4968443,43.8583629],[125.487806,43.8580665]]]}},{"type":"Feature","properties":{"layer":"primary","name":"东风大街"},"geometry":{"type":"MultiLineString","coordinates":[[[125.2121251,43.8423659],[125.2314715,43.8499833],[125.2367548,43.8526013],[125.2373951,43.8527232],[125.2402117,43.854194],[125.2415126,43.855043]],[[125.2411313,43.8550376],[125.2385872,43.8539367],[125.2375893,43.8531501],[125.2312736,43.850046],[125.2120505,43.8424676]],[[125.2415126,43.855043],[125.2574297,43.8631855]],[[125.2573715,43.8632419],[125.2413967,43.8551721]]]}},{"type":"Feature","properties":{"layer":"primary","name":"亚泰大街"},"geometry":{"type":"MultiLineString","coordinates":[[[125.3329885,43.8328641],[125.3336846,43.8295578],[125.3342465,43.8246464],[125.3339496,43.8234913],[125.333368,43.8222118],[125.3322068,43.820561],[125.3314179,43.8190647],[125.3310914,43.8177096],[125.3310031,43.8159146]],[[125.3341098,43.8300457],[125.3333265,43.8335852],[125.3323416,43.8358571],[125.3319616,43.838909],[125.3308564,43.8431512],[125.3308819,43.8447826],[125.3314393,43.8464382],[125.3326029,43.8487373],[125.3332718,43.8511627],[125.3346853,43.8536201],[125.337114,43.8591371],[125.3410153,43.8648634],[125.341647,43.8662161],[125.3419326,43.8678926],[125.3415665,43.8732526],[125.3430068,43.8791303],[125.3432228,43.8860223],[125.3430565,43.887127],[125.3426877,43.8879834],[125.3396072,43.8922129],[125.3390581,43.8932818]],[[125.3357265,43.8976308],[125.337402,43.8952661],[125.3395692,43.8916134],[125.342115,43.8882521],[125.3426447,43.8871005],[125.3427722,43.8860136],[125.3425904,43.879401],[125.3410596,43.8728166],[125.3413881,43.8695488]],[[125.3413881,43.8695488],[125.3415813,43.8675552],[125.3411025,43.8656959],[125.336662,43.8591231],[125.3342561,43.8537004],[125.3329405,43.85133],[125.3321858,43.8487325],[125.3308392,43.8462725],[125.3304741,43.8450941],[125.3305002,43.8426662],[125.3315422,43.8388503],[125.3319225,43.8357047],[125.3329885,43.8328641]]]}},{"type":"Feature","properties":{"layer":"primary","name":"人民大街"},"geometry":{"type":"MultiLineString","coordinates":[[[125.3178398,43.8834405],[125.3181505,43.8831238],[125.3193054,43.8316737],[125.3190782,43.8311249]],[[125.3196613,43.8311498],[125.3193893,43.8316767],[125.3182481,43.8831239],[125.3185176,43.8834436]],[[125.3204475,43.7801394],[125.320557,43.774928],[125.3199328,43.7732216],[125.3199506,43.7713025],[125.3207079,43.7693024],[125.3208259,43.7635732],[125.3202362,43.7620869],[125.3202106,43.7601862],[125.3203213,43.759608],[125.3209601,43.7583655],[125.3209826,43.7573958],[125.3203457,43.7556351],[125.3203295,43.7528907]],[[125.3210637,43.7526972],[125.3204823,43.7535884],[125.3204436,43.7555462],[125.3205982,43.7562228],[125.3210154,43.7569917],[125.3210548,43.7580997],[125.3203037,43.7602782],[125.3203222,43.7620426],[125.3209546,43.763626],[125.3208312,43.7694537],[125.3200449,43.7713962],[125.3200421,43.7732022],[125.3206952,43.7751251],[125.3205815,43.7801754]]]}},{"type":"Feature","properties":{"layer":"primary","name":"前进大街"},"geometry":{"type":"MultiLineString","coordinates":[[[125.2826117,43.8474932],[125.2828771,43.8471432],[125.2830756,43.8423061],[125.2831185,43.836773],[125.2829495,43.830901],[125.2833077,43.8301566]],[[125.2834331,43.830156],[125.2839653,43.830564],[125.2840319,43.8309317],[125.2834418,43.8372652],[125.2832083,43.8470899],[125.2834783,43.8474877]],[[125.2892627,43.8013068],[125.2892493,43.7749832]],[[125.2894739,43.7749744],[125.2894599,43.8013095]]]}},{"type":"Feature","properties":{"layer":"primary","name":"北环城路"},"geometry":{"type":"MultiLineString","coordinates":[[[125.3051582,43.9473678],[125.327801,43.9499535]],[[125.3277092,43.9501126],[125.3051072,43.9474265]],[[125.3349896,43.9505823],[125.3389688,43.9502247],[125.3413904,43.9494457],[125.3506453,43.9435381]],[[125.3507903,43.9436371],[125.3413333,43.9496183],[125.3385957,43.9504174],[125.3349975,43.9506902]]]}},{"type":"Feature","properties":{"layer":"primary","name":"南湖大路"},"geometry":{"type":"MultiLineString","coordinates":[[[125.2530565,43.8479152],[125.2563128,43.8478119],[125.2695813,43.8482135],[125.2812964,43.8482335],[125.2818897,43.8480883]],[[125.2819008,43.8485374],[125.2812563,43.84834],[125.2604552,43.8480679],[125.2591476,43.8484141],[125.2575852,43.8484034],[125.257089,43.8480939],[125.2563098,43.8478966],[125.2530677,43.8479925]],[[125.3190184,43.8486829],[125.3509039,43.8490369]],[[125.3507965,43.8491358],[125.3101527,43.8486557]]]}},{"type":"Feature","properties":{"layer":"primary","name":"南环城路"},"geometry":{"type":"MultiLineString","coordinates":[[[125.342515,43.8159156],[125.3631755,43.8158771],[125.369733,43.8164375]],[[125.3696687,43.8168309],[125.3693601,43.8166396],[125.363158,43.8160038],[125.3425045,43.816039]],[[125.3724229,43.8164882],[125.4023811,43.8177941]],[[125.402454,43.8179196],[125.3727222,43.816809],[125.3724366,43.8169362]]]}},{"type":"Feature","properties":{"layer":"primary","name":"卫星路"},"geometry":{"type":"MultiLineString","coordinates":[[[125.271098,43.8295105],[125.2731841,43.8298974],[125.2829273,43.8301579],[125.3028837,43.8302314]],[[125.3029168,43.8305954],[125.2943093,43.8303104],[125.2859609,43.8302302],[125.2829103,43.8303798],[125.2732495,43.8301265],[125.2710622,43.8297732]],[[125.3724456,43.8309427],[125.3868914,43.8310775],[125.3874562,43.830949],[125.3889554,43.8299606]],[[125.3963259,43.8367484],[125.3906907,43.8322189],[125.3895481,43.8316636],[125.3881238,43.8314566],[125.3796767,43.8313562]]]}},{"type":"Feature","properties":{"layer":"primary","name":"吉林大路"},"geometry":{"type":"MultiLineString","coordinates":[[[125.3461194,43.8794246],[125.3699972,43.8797088]],[[125.3699993,43.879883],[125.3461024,43.8796195]],[[125.3750248,43.8797333],[125.396749,43.8799648],[125.4150026,43.8792418]],[[125.41552,43.8795956],[125.4093467,43.8799134],[125.3971086,43.8801836],[125.3750167,43.8799398]]]}},{"type":"Feature","properties":{"layer":"primary","name":"工农大路"},"geometry":{"type":"MultiLineString","coordinates":[[[125.2849717,43.8739124],[125.286932,43.8722883],[125.3005383,43.8622754],[125.3006713,43.8619725]],[[125.3009978,43.8622096],[125.3006136,43.8623244],[125.2866244,43.8726522]],[[125.3023051,43.8608052],[125.3025895,43.8607489],[125.3189074,43.8486834]],[[125.3190184,43.8486829],[125.3026592,43.8607943],[125.3025895,43.8610007]]]}},{"type":"Feature","properties":{"layer":"primary","name":"开运街"},"geometry":{"type":"MultiLineString","coordinates":[[[125.2417174,43.8423227],[125.2539374,43.8483899],[125.2582021,43.8516627]],[[125.2582021,43.8516627],[125.2659349,43.857588],[125.2659143,43.8577788]],[[125.2582364,43.85181],[125.2538833,43.8484281],[125.2416609,43.8423941]],[[125.2806312,43.8719811],[125.2765149,43.8661668],[125.2713472,43.8620433]]]}},{"type":"Feature","properties":{"layer":"primary","name":"新城大街"},"geometry":{"type":"MultiLineString","coordinates":[[[125.3907864,43.7222056],[125.3917349,43.7247886],[125.3923829,43.7277818],[125.3956821,43.7368863],[125.3960625,43.7382822],[125.3960325,43.7404206],[125.3955987,43.7418357],[125.3944442,43.7443186],[125.3940754,43.7461384]],[[125.3934287,43.7979365],[125.394339,43.8027657],[125.3946893,43.8037572],[125.3953528,43.8047932],[125.3987996,43.8090724],[125.4018903,43.8168864]],[[125.393516,43.746162],[125.393843,43.744665],[125.3955281,43.7410828],[125.395785,43.7400462],[125.3958083,43.7384068],[125.3953949,43.7368663],[125.3920511,43.7278126],[125.3915099,43.7250157],[125.3904827,43.722205]],[[125.4019128,43.8173932],[125.3985115,43.8089707],[125.3951373,43.8048506],[125.3944903,43.8038124],[125.3941019,43.8027117],[125.3932661,43.7984746]]]}},{"type":"Feature","properties":{"layer":"primary","name":"景阳大路"},"geometry":{"type":"MultiLineString","coordinates":[[[125.2324836,43.8815584],[125.2487203,43.8817841]],[[125.2464172,43.8818941],[125.2324936,43.8818253]],[[125.2487203,43.8817841],[125.2642873,43.8818468]],[[125.2642984,43.8821985],[125.2638179,43.8820674],[125.2464172,43.8818941]]]}},{"type":"Feature","properties":{"layer":"primary","name":"机场路"},"geometry":{"type":"MultiLineString","coordinates":[[[125.4565276,43.9301233],[125.4595102,43.9320086],[125.4733395,43.9427607],[125.4894199,43.9543971],[125.4900769,43.9545383]],[[125.4894551,43.9549893],[125.4892331,43.9544926],[125.4730166,43.9427605],[125.4597069,43.9323786],[125.4565311,43.9303697]],[[125.4941973,43.9578105],[125.5236493,43.97887],[125.5365502,43.9838675],[125.5394095,43.9843724],[125.5425487,43.9842882]],[[125.542774,43.984457],[125.5390306,43.9845242],[125.5371882,43.9842413],[125.5327653,43.9826579],[125.5231057,43.9787748],[125.4941124,43.9579849]]]}},{"type":"Feature","properties":{"layer":"primary","name":"生态大街"},"geometry":{"type":"MultiLineString","coordinates":[[[125.3708187,43.8157455],[125.370977,43.814125],[125.3712125,43.7998567]],[[125.3717096,43.7783287],[125.3720599,43.7605025]],[[125.3723587,43.7452414],[125.3727508,43.7235763]],[[125.3729973,43.7235801],[125.3725761,43.7453173]]]}},{"type":"Feature","properties":{"layer":"primary","name":"皓月大路"},"geometry":{"type":"MultiLineString","coordinates":[[[125.1547415,43.8903941],[125.2158814,43.8884181]],[[125.2161012,43.8885484],[125.1547692,43.8904677]],[[125.2171101,43.888367],[125.2292198,43.8880682],[125.2311129,43.8878749]],[[125.2311009,43.8879473],[125.2291942,43.8881342],[125.2173171,43.8885087]]]}},{"type":"Feature","properties":{"layer":"primary","name":"硅谷大街"},"geometry":{"type":"MultiLineString","coordinates":[[[125.2063344,43.7795859],[125.2096908,43.7823632],[125.2106784,43.7828702],[125.2217567,43.7916983]],[[125.2215898,43.7918081],[125.210449,43.7829371],[125.2096696,43.7825557],[125.2076224,43.7809793],[125.2054084,43.7790359]],[[125.2371786,43.8042305],[125.2540426,43.8203294]],[[125.2538768,43.8204205],[125.237025,43.8043311]]]}},{"type":"Feature","properties":{"layer":"primary","name":"自由大路"},"geometry":{"type":"MultiLineString","coordinates":[[[125.3028037,43.8613547],[125.3031332,43.8614678],[125.3509876,43.8620257]],[[125.3449474,43.8620571],[125.3028,43.8616727]],[[125.3530603,43.86205],[125.3881561,43.8625204],[125.3917585,43.8624292],[125.4034425,43.8625694]],[[125.416005,43.8628462],[125.3530557,43.8621457]]]}},{"type":"Feature","properties":{"layer":"primary","name":"西安大路"},"geometry":{"type":"MultiLineString","coordinates":[[[125.239663,43.8998424],[125.2686025,43.9000974],[125.2690481,43.8999316]],[[125.2690307,43.9003073],[125.268612,43.9001806],[125.2660035,43.9001375],[125.2397089,43.8999017]],[[125.2936926,43.8932131],[125.2741033,43.9001282],[125.2712264,43.9002016],[125.2707683,43.9003876]],[[125.3170313,43.8851694],[125.3165811,43.8851253],[125.3148445,43.8856996],[125.294367,43.8929679]]]}},{"type":"Feature","properties":{"layer":"primary","name":"西环城路"},"geometry":{"type":"MultiLineString","coordinates":[[[125.2346373,43.8696959],[125.2311179,43.8881203],[125.2521353,43.9163947],[125.2667414,43.9318797]],[[125.266672,43.9319147],[125.252015,43.9164304],[125.2309569,43.8880328],[125.235151,43.8654262],[125.2363415,43.8600415]],[[125.2669651,43.9321228],[125.2740101,43.9395813],[125.2750076,43.940348],[125.2766588,43.9410662],[125.287989,43.9443865]],[[125.2880009,43.944496],[125.2766205,43.9411163],[125.2747018,43.9402569],[125.2734989,43.9391814],[125.2668921,43.9321525]]]}},{"type":"Feature","properties":{"layer":"primary","name":"解放大路"},"geometry":{"type":"MultiLineString","coordinates":[[[125.283114,43.8750334],[125.2839027,43.8748908],[125.2854913,43.8752523]],[[125.2854084,43.875334],[125.2844424,43.8751365],[125.2833411,43.8753288]],[[125.2868041,43.875391],[125.3328337,43.8759039],[125.341596,43.8792985],[125.3443527,43.8794015]],[[125.3443416,43.8795954],[125.3414664,43.8793893],[125.3328369,43.8759794],[125.2889161,43.8755544],[125.2857223,43.8754031]]]}},{"type":"Feature","properties":{"layer":"primary","name":"远达大街"},"geometry":{"type":"MultiLineString","coordinates":[[[125.3691344,43.9140781],[125.3692844,43.9023618],[125.3691078,43.9004752]],[[125.3778039,43.9724845],[125.3781009,43.9719771],[125.3781102,43.9586195]],[[125.3781613,43.989426],[125.3781359,43.9761209]],[[125.3783471,43.9586487],[125.378344,43.9720118],[125.3786243,43.9724661]]]}},{"type":"Feature","properties":{"layer":"primary","name":"长白公路"},"geometry":{"type":"MultiLineString","coordinates":[[[125.2284101,43.9284595],[125.2305027,43.9277952],[125.242771,43.9194565]],[[125.2428714,43.9195255],[125.2305194,43.9279538],[125.2284311,43.9285964]],[[125.2428994,43.9193704],[125.2505503,43.9142788]],[[125.2505503,43.9142788],[125.2429924,43.9194394]]]}},{"type":"Feature","properties":{"layer":"railway","name":"京哈线"},"geometry":{"type":"MultiLineString","coordinates":[[[125.15,43.771076],[125.1665832,43.7858297],[125.18311,43.7981002],[125.1921611,43.8046026],[125.2070785,43.8157461],[125.2125175,43.8201018]],[[125.15,43.7711878],[125.1630356,43.7829272],[125.1661753,43.7855674],[125.2069494,43.8157368],[125.2124542,43.8201451]],[[125.221391,43.8276204],[125.2238814,43.8299662],[125.2298136,43.8362157],[125.2313664,43.8374854],[125.2373473,43.8414969],[125.255935,43.8507807],[125.2619588,43.8561482],[125.2728703,43.8646333],[125.2750055,43.8664614]],[[125.2752994,43.8668607],[125.2935388,43.8926433],[125.2946838,43.8949374],[125.2969691,43.9024233],[125.298878,43.9051106],[125.3008588,43.9066256],[125.3027411,43.9073917],[125.3045081,43.9077601],[125.3149458,43.908607],[125.3413052,43.9086907],[125.3437745,43.908769],[125.3451451,43.9090227]],[[125.2753714,43.8668339],[125.2991021,43.9004051],[125.300421,43.90197],[125.3025221,43.9036476],[125.3077494,43.9067395],[125.3090666,43.9073636],[125.3103166,43.907807],[125.3128282,43.9082614],[125.3424938,43.9086559],[125.3451695,43.9089476]]]}},{"type":"Feature","properties":{"layer":"railway","name":"长图线"},"geometry":{"type":"MultiLineString","coordinates":[[[125.3983322,43.9107628],[125.3827599,43.8979851],[125.3807273,43.8968521],[125.379339,43.8964418],[125.3778775,43.8962318],[125.3587701,43.8949547]],[[125.4152446,43.9273958],[125.4173807,43.9273607],[125.4192072,43.9278535],[125.434357,43.9342554],[125.4362364,43.9352316],[125.4732191,43.9597097],[125.4785548,43.9643922]],[[125.4786332,43.9643468],[125.4732797,43.9596867],[125.4367957,43.93552],[125.4343912,43.9342239],[125.4205773,43.9282803],[125.4181555,43.9269177],[125.4165263,43.9257195],[125.3988187,43.9111634]],[[125.4862573,43.9713824],[125.5190243,44.0009568],[125.5256267,44.006807],[125.5270811,44.0078394],[125.5598826,44.0257855],[125.5645904,44.0287301],[125.5952701,44.0465257],[125.6,44.0484233]],[[125.6,44.0483651],[125.595311,44.0464819],[125.5646374,44.0286898],[125.559929,44.0257449],[125.5271294,44.0077999],[125.5256809,44.0067716],[125.5190811,44.0009238],[125.486332,43.9713321]]]}},{"type":"Feature","properties":{"layer":"railway","name":"长珲城际线"},"geometry":{"type":"MultiLineString","coordinates":[[[125.3352207,43.9094985],[125.34069,43.9095609],[125.3438184,43.9093603],[125.3465179,43.9089561],[125.3553542,43.9071826],[125.3600315,43.9066466],[125.3788932,43.9066905],[125.3855423,43.9071211],[125.3898598,43.9077948],[125.3936712,43.9086764],[125.4124171,43.9138414],[125.4315859,43.9201001]],[[125.3464907,43.9088464],[125.3551715,43.9070834],[125.3608413,43.9065005],[125.378487,43.9066279],[125.3826607,43.9067863],[125.386429,43.9071703],[125.3898905,43.9077433],[125.39371,43.9086356],[125.4102437,43.9131442],[125.4161315,43.9148974],[125.4316081,43.9200654]],[[125.4462857,43.9236101],[125.4553794,43.9247807],[125.5029908,43.9292577]],[[125.4559934,43.9247912],[125.5029925,43.9292058]],[[125.5034136,43.9292458],[125.52633,43.931358],[125.535515,43.93246]]]}},{"type":"Feature","properties":{"layer":"railway","name":"长白线"},"geometry":{"type":"MultiLineString","coordinates":[[[125.2715758,44.0171307],[125.2648715,44.0280305],[125.2580699,44.0385447]],[[125.2918043,43.9906734],[125.281858,44.0010402],[125.2804831,44.0029197],[125.2768567,44.0086703]],[[125.3048983,43.9876368],[125.3204775,43.9858302]],[[125.3204767,43.9857736],[125.2969452,43.988435]],[[125.3371037,43.9802856],[125.3380137,43.9762455],[125.3399297,43.9697772],[125.340605,43.9651224]]]}},{"type":"Feature","properties":{"layer":"secondary","name":"世纪大街"},"geometry":{"type":"MultiLineString","coordinates":[[[125.4032688,43.8799919],[125.4032256,43.8667762],[125.4032708,43.8642136],[125.403395,43.8637102]],[[125.4034425,43.8625694],[125.4038269,43.8496931]],[[125.4041258,43.8496953],[125.4038428,43.8625694]]]}},{"type":"Feature","properties":{"layer":"secondary","name":"临河街"},"geometry":{"type":"MultiLineString","coordinates":[[[125.3572921,43.8942753],[125.3580115,43.8939522],[125.3584939,43.8930882],[125.3592471,43.8925699],[125.359407,43.8876247],[125.3593382,43.8872111],[125.3589399,43.8865434],[125.3575929,43.885057],[125.3573206,43.8843028],[125.357778,43.8689137],[125.3585371,43.8290121]],[[125.3587818,43.8289514],[125.3575723,43.8842874],[125.3577865,43.8849215],[125.3591762,43.8864683],[125.3596216,43.8874144],[125.3594992,43.8935593],[125.359345,43.893842],[125.3587531,43.8940946]],[[125.3594122,43.7794316],[125.359366,43.775126],[125.3600043,43.7438988]]]}},{"type":"Feature","properties":{"layer":"secondary","name":"博学路"},"geometry":{"type":"MultiLineString","coordinates":[[[125.4036433,43.8176584],[125.4058713,43.8173761],[125.4088193,43.8172781],[125.4149092,43.8186013],[125.4235134,43.8197858],[125.4266342,43.8207761]],[[125.4265386,43.8208341],[125.4235839,43.8198937],[125.414652,43.8186523],[125.4086794,43.8173571],[125.4047325,43.8175537],[125.402454,43.8179196]],[[125.4305065,43.8223133],[125.429893,43.8219531],[125.4269789,43.8209799]]]}},{"type":"Feature","properties":{"layer":"secondary","name":"城南大路"},"geometry":{"type":"MultiLineString","coordinates":[[[125.2374534,43.7563618],[125.2148144,43.748859],[125.2122351,43.7484261],[125.2096297,43.7483132],[125.2096558,43.748172]],[[125.2759811,43.7669934],[125.2808257,43.7689114],[125.2969035,43.7769615],[125.3024301,43.7795131],[125.3063061,43.7811173],[125.316195,43.7845803],[125.3263535,43.7873756]],[[125.3293475,43.7883343],[125.3223162,43.7865214],[125.3155486,43.7845598],[125.3079045,43.781938],[125.3005739,43.7788871],[125.2802519,43.7688456],[125.2757669,43.7670953]]]}},{"type":"Feature","properties":{"layer":"secondary","name":"湖畔街"},"geometry":{"type":"MultiLineString","coordinates":[[[125.3624319,43.9740534],[125.3623564,43.9715518],[125.3624901,43.9711728],[125.3629328,43.9707233],[125.3639167,43.9703868],[125.3702184,43.9703868],[125.3716029,43.970135],[125.3723025,43.9696989],[125.375699,43.9653733],[125.3765735,43.9649658],[125.3776842,43.9648821]],[[125.3647026,43.9889247],[125.3650354,43.9849336],[125.366181,43.982103],[125.3671252,43.9802355],[125.3672388,43.9791906],[125.36687,43.9782299],[125.3660984,43.9774021],[125.3649944,43.9768142],[125.3632406,43.9762907],[125.3626614,43.9758652],[125.3624757,43.9754859],[125.3624281,43.9743221]],[[125.3776863,43.965002],[125.3765007,43.9651113],[125.3757834,43.9655211],[125.3724026,43.9697534],[125.3716652,43.9702133],[125.3707028,43.9704509],[125.3642774,43.9704849],[125.363254,43.9707045],[125.3628576,43.9710058],[125.362558,43.9715222],[125.3625609,43.9740679]]]}},{"type":"Feature","properties":{"layer":"secondary","name":"生态东街"},"geometry":{"type":"MultiLineString","coordinates":[[[125.3803035,43.7788052],[125.3798135,43.7768753],[125.3801087,43.7629836],[125.3805001,43.7615071],[125.3816609,43.7597376]],[[125.3835726,43.7477812],[125.3843102,43.7463707],[125.3845328,43.7453824],[125.3849608,43.7225379]],[[125.3851548,43.722516],[125.3847126,43.7451927],[125.3844872,43.7464385],[125.3837281,43.7478646]]]}},{"type":"Feature","properties":{"layer":"secondary","name":"福祉大路"},"geometry":{"type":"MultiLineString","coordinates":[[[125.3382992,43.7818202],[125.34547,43.7844347],[125.3476607,43.7848356],[125.3809572,43.7848905],[125.3861124,43.7854048]],[[125.3913829,43.7862383],[125.3886779,43.7857817],[125.3812611,43.7849856],[125.3476205,43.7849651],[125.3450796,43.7844539],[125.3382689,43.7819147]],[[125.4152042,43.7813239],[125.4147087,43.7812891],[125.4120932,43.7817028],[125.4055253,43.7821203],[125.3997903,43.7846252],[125.3969088,43.7852171],[125.3953187,43.7857452]]]}},{"type":"Feature","properties":{"layer":"secondary","name":"繁荣路"},"geometry":{"type":"MultiLineString","coordinates":[[[125.2489459,43.8268581],[125.2580424,43.8326021],[125.2673976,43.8370818],[125.3251409,43.8377477],[125.3319301,43.838813],[125.3415237,43.8387069]],[[125.3415298,43.8388378],[125.3319616,43.838909],[125.3250585,43.8378184],[125.2673482,43.8371645],[125.2579868,43.8326664],[125.2488591,43.8269134]],[[125.3491203,43.8384833],[125.3517747,43.838313],[125.3585352,43.8385623]]]}},{"type":"Feature","properties":{"layer":"secondary","name":"聚业大街"},"geometry":{"type":"MultiLineString","coordinates":[[[125.4154423,43.7593236],[125.4157894,43.7804046]],[[125.4158139,43.7836213],[125.4159107,43.7869662],[125.4162407,43.787873],[125.4168617,43.7886447],[125.4180803,43.7894554],[125.4283305,43.7951742],[125.4352836,43.802799],[125.4365465,43.8036317],[125.4379203,43.8040896]],[[125.4378425,43.8042314],[125.4365141,43.8037686],[125.4349934,43.8027451],[125.4288967,43.7959541],[125.4279483,43.7951097],[125.4177663,43.7894617],[125.4166263,43.7886465],[125.4160352,43.7878605],[125.4156942,43.7868082],[125.4155673,43.7816656]]]}},{"type":"Feature","properties":{"layer":"secondary","name":"长伊线"},"geometry":{"type":"MultiLineString","coordinates":[[[125.3731436,43.6],[125.3753209,43.6155179],[125.375688,43.6162022],[125.376826,43.6173716],[125.3861596,43.6216105],[125.3872793,43.6225008],[125.3879676,43.6235837],[125.3899089,43.6317288]],[[125.3900428,43.6322948],[125.3924275,43.6429786],[125.3929144,43.6501986],[125.3932172,43.6509556],[125.3937128,43.6515931],[125.3943919,43.6521575],[125.4062402,43.6599794],[125.4068093,43.6610085],[125.4068551,43.6631132]],[[125.4068276,43.6635845],[125.4067725,43.6642219],[125.4060934,43.6653373],[125.4000086,43.6728653],[125.3941533,43.6781955],[125.3933732,43.6788526],[125.3922995,43.6792442],[125.3881236,43.6797354],[125.3874445,43.6799677],[125.386334,43.6807376],[125.3852602,43.6824633],[125.3819742,43.6936915],[125.3807588,43.6964915],[125.3800303,43.6988279],[125.3803961,43.6998299],[125.3840488,43.7030744],[125.3845719,43.7038308],[125.3857168,43.7081875],[125.3875607,43.712843]]]}},{"type":"Feature","properties":{"layer":"secondary","name":"飞跃路"},"geometry":{"type":"MultiLineString","coordinates":[[[125.2079763,43.8695075],[125.2089053,43.8684051],[125.2129802,43.8616865],[125.2202639,43.8521322],[125.2210127,43.8508078],[125.2221361,43.8495844],[125.222376,43.8490041],[125.2239927,43.8472116]],[[125.208,43.8697783],[125.2052889,43.8716181],[125.201219,43.8751601]],[[125.2240919,43.8472539],[125.213002,43.8621078],[125.2090303,43.8686619],[125.2081769,43.86963]]]}},{"type":"Feature","properties":{"layer":"service_boundary","name":"长春市及近郊服务范围"},"geometry":{"type":"Polygon","coordinates":[[[125.15,44.09],[125.15,43.82],[125.19,43.7],[125.28,43.62],[125.42,43.6],[125.54,43.64],[125.6,43.72],[125.6,43.87],[125.56,43.98],[125.5,44.02],[125.3,44.02],[125.2,44.09],[125.15,44.09]]]}},{"type":"Feature","properties":{"layer":"trunk","name":"102国道"},"geometry":{"type":"MultiLineString","coordinates":[[[125.4214196,43.9362401],[125.4250668,43.9522401],[125.4264849,43.956404]],[[125.4252236,44.0247122],[125.4263468,44.0225929],[125.4267232,44.0210713],[125.4264853,44.014543],[125.4278436,44.0053581]],[[125.4265384,43.9565553],[125.4312982,43.9694976],[125.4319708,43.9724297],[125.4319824,43.9742059]],[[125.4279688,44.005365],[125.4265976,44.0145468],[125.426835,44.0210797],[125.4264556,44.0226133],[125.4253078,44.0248361]],[[125.4318612,43.9741689],[125.4318772,43.9726863],[125.4315718,43.9706797],[125.4251716,43.9531315],[125.4213018,43.936246]]]}},{"type":"Feature","properties":{"layer":"trunk","name":"G102;G302"},"geometry":{"type":"MultiLineString","coordinates":[[[125.4194264,43.9271683],[125.4202027,43.9310071]],[[125.4200557,43.9309276],[125.4192425,43.9270808]],[[125.4201719,43.931431],[125.4200557,43.9309276]],[[125.4202027,43.9310071],[125.4203251,43.9315284]]]}},{"type":"Feature","properties":{"layer":"trunk","name":"G102;G334"},"geometry":{"type":"MultiLineString","coordinates":[[[125.1991319,43.8112555],[125.2030915,43.808429]],[[125.2032227,43.8085386],[125.1991788,43.8113994]]]}},{"type":"Feature","properties":{"layer":"trunk","name":"G102"},"geometry":{"type":"MultiLineString","coordinates":[[[125.3845351,43.8266109],[125.3853273,43.8272331]],[[125.3851382,43.8273232],[125.3843735,43.8266908]],[[125.3853273,43.8272331],[125.3889554,43.8299606]],[[125.3886582,43.8301839],[125.3851382,43.8273232]],[[125.3907483,43.8320308],[125.3886582,43.8301839]]]}},{"type":"Feature","properties":{"layer":"trunk","name":"G302"},"geometry":{"type":"MultiLineString","coordinates":[[[125.2785641,43.9594934],[125.2777175,43.958633],[125.2777104,43.9582899],[125.2779949,43.9580057],[125.2787811,43.9579903],[125.2803996,43.9587227]],[[125.2802847,43.9600366],[125.278435,43.9619718]],[[125.2803996,43.9587227],[125.2844193,43.9605385]],[[125.2847355,43.9613775],[125.2806873,43.9607834],[125.2799332,43.960873],[125.2792068,43.9612683]],[[125.4236682,43.8765531],[125.4223971,43.8777971],[125.4223207,43.8784967]]]}},{"type":"Feature","properties":{"layer":"trunk","name":"G334"},"geometry":{"type":"MultiLineString","coordinates":[[[125.1934057,43.8170292],[125.1960602,43.8138438],[125.1991319,43.8112555]],[[125.1991788,43.8113994],[125.1963212,43.8138462],[125.1935588,43.8171315]]]}},{"type":"Feature","properties":{"layer":"trunk","name":"Jingbai Lu"},"geometry":{"type":"LineString","coordinates":[[125.174979,43.8532296],[125.1745421,43.8555979],[125.1746452,43.857363]]}},{"type":"Feature","properties":{"layer":"trunk","name":"世纪大街"},"geometry":{"type":"MultiLineString","coordinates":[[[125.3989973,43.8381384],[125.402466,43.8410539],[125.4035005,43.8422481],[125.4040666,43.843739],[125.4041288,43.8453506]],[[125.4038324,43.845348],[125.4038346,43.8436673],[125.4030965,43.8419472],[125.3988167,43.8382524]]]}},{"type":"Feature","properties":{"layer":"trunk","name":"世纪快速路"},"geometry":{"type":"MultiLineString","coordinates":[[[125.3802998,43.8232939],[125.4024209,43.8411025],[125.4036885,43.8426865],[125.4040748,43.8443441],[125.4036217,43.868261]],[[125.403226,43.8794988],[125.4033687,43.8730021]],[[125.4034564,43.8682638],[125.4039261,43.8444122],[125.4035487,43.842762],[125.4030682,43.8419914],[125.4020273,43.8409289],[125.3801621,43.8233582]],[[125.4035364,43.873314],[125.4033579,43.8795081]],[[125.4036217,43.868261],[125.4035364,43.873314]]]}},{"type":"Feature","properties":{"layer":"trunk","name":"东自由大路"},"geometry":{"type":"MultiLineString","coordinates":[[[125.4404451,43.8591311],[125.4417406,43.8591906],[125.4559984,43.8618827],[125.4632462,43.8628276],[125.4825238,43.8677406],[125.4848763,43.868255],[125.4872124,43.8684663],[125.4892639,43.8684175],[125.4918249,43.8678988],[125.5036469,43.8636211],[125.5097471,43.8619257],[125.5289825,43.8588559],[125.5309552,43.8587233]],[[125.5308801,43.8588247],[125.5290059,43.8589534],[125.517001,43.8607701],[125.5090164,43.862194],[125.5037037,43.8637111],[125.4918737,43.8679912],[125.4892844,43.8685154],[125.4874717,43.8685716],[125.4857966,43.8684825],[125.483104,43.8679893],[125.4635342,43.8629607],[125.4557939,43.8619321],[125.4418497,43.8593067],[125.4405444,43.8592322]],[[125.5315589,43.8587032],[125.5393992,43.8586438],[125.5418154,43.8583965],[125.5449894,43.857613],[125.5469643,43.8567893],[125.5619081,43.849195],[125.5695161,43.8450179],[125.5731933,43.8435506],[125.5761813,43.8428401],[125.5785712,43.8425804],[125.5932549,43.8415602],[125.5965838,43.8410326],[125.6,43.840167]],[[125.5315632,43.8588019],[125.5308801,43.8588247]],[[125.6,43.840426],[125.5966794,43.841275],[125.5933106,43.8418089],[125.5786121,43.8428303],[125.5762625,43.8430857],[125.5733335,43.8437821],[125.5697071,43.8452291],[125.5621111,43.8493996],[125.5470382,43.8568726],[125.5450482,43.8577026],[125.5418482,43.8584926],[125.5394082,43.8587426],[125.5315632,43.8588019]]]}},{"type":"Feature","properties":{"layer":"trunk","name":"东部快速路"},"geometry":{"type":"MultiLineString","coordinates":[[[125.3696971,43.879052],[125.3706887,43.8317766]],[[125.3707288,43.829918],[125.3713257,43.7962667],[125.3719035,43.7945333]],[[125.3708418,43.831777],[125.3698741,43.8790173]],[[125.3718954,43.7948363],[125.3715439,43.7957724],[125.3714591,43.7968442],[125.3708814,43.8299211]],[[125.3880833,43.768395],[125.3885824,43.7697857],[125.392765,43.7783291],[125.3934281,43.7800329],[125.3935169,43.7815287],[125.3930372,43.7835311],[125.3929818,43.7861316],[125.3927385,43.7870883],[125.3921144,43.7883064],[125.390665,43.7899261],[125.3891919,43.7908553],[125.3875313,43.7915334],[125.384386,43.7921459],[125.3778104,43.7921109],[125.3755862,43.7923559],[125.373459,43.793257],[125.3718954,43.7948363]]]}},{"type":"Feature","properties":{"layer":"trunk","name":"亚泰大街"},"geometry":{"type":"MultiLineString","coordinates":[[[125.3291103,43.7948232],[125.3294885,43.8003273],[125.3299347,43.8029478]],[[125.3296108,43.8027734],[125.3284183,43.7948445]],[[125.3299347,43.8029478],[125.3304549,43.8051753]],[[125.3302672,43.8052117],[125.3296108,43.8027734]],[[125.3304549,43.8051753],[125.3308673,43.8065832]]]}},{"type":"Feature","properties":{"layer":"trunk","name":"亚泰大街快速路"},"geometry":{"type":"MultiLineString","coordinates":[[[125.3306582,43.9440545],[125.3319211,43.9110228]],[[125.3320189,43.9054298],[125.3319887,43.9032172],[125.3322056,43.9023671],[125.3361034,43.8972228],[125.3397493,43.8915855],[125.3424409,43.8879138],[125.3428929,43.8864176],[125.3428945,43.8849201]],[[125.3320811,43.9110265],[125.3321877,43.9138983],[125.3308289,43.9440487]],[[125.3333256,43.8218994],[125.3318469,43.8196396],[125.3313063,43.8180736],[125.3310186,43.8133578],[125.3312021,43.8092089],[125.330675,43.8065762]],[[125.3430498,43.8849176],[125.3429975,43.8868226],[125.3423618,43.8883246],[125.3398767,43.8916339],[125.3353753,43.8984871],[125.3323508,43.9024092],[125.3321425,43.9032211],[125.3321555,43.905436]]]}},{"type":"Feature","properties":{"layer":"trunk","name":"京抚线"},"geometry":{"type":"MultiLineString","coordinates":[[[125.15,43.7762222],[125.1647949,43.7886742]],[[125.1646101,43.7887422],[125.15,43.7763687]]]}},{"type":"Feature","properties":{"layer":"trunk","name":"伊通河大桥"},"geometry":{"type":"MultiLineString","coordinates":[[[125.3327938,43.8052088],[125.3403104,43.8039173]],[[125.3403704,43.8040916],[125.3328379,43.8053737]]]}},{"type":"Feature","properties":{"layer":"trunk","name":"净月大街"},"geometry":{"type":"MultiLineString","coordinates":[[[125.4030008,43.8362637],[125.4080193,43.8346687],[125.4168812,43.8313436],[125.4193785,43.8301663],[125.4313904,43.821381],[125.4400784,43.8103009]],[[125.4401771,43.8103489],[125.4312914,43.8215865],[125.4195149,43.8301756],[125.4171724,43.8313054],[125.4080839,43.8347749],[125.4038109,43.8362161]],[[125.4434559,43.7987012],[125.4387735,43.7946056],[125.435065,43.7909404],[125.4321165,43.7886525],[125.4316194,43.7880019],[125.4313691,43.7869266],[125.4315668,43.7847168],[125.4321086,43.7837654],[125.4329383,43.7831896],[125.4360604,43.7818999],[125.4420439,43.7771844],[125.442792,43.7763194],[125.4440984,43.7706028],[125.4442963,43.7680779],[125.4439915,43.7675162],[125.4439572,43.7667458],[125.44464,43.7650653]],[[125.4447217,43.7650791],[125.4440334,43.7668012],[125.4440606,43.7673832],[125.4443818,43.7680264],[125.4441995,43.7706264],[125.4429192,43.7762617],[125.4422094,43.7771585],[125.436072,43.7819998],[125.4330547,43.7832291],[125.4321893,43.783815],[125.4316514,43.7847757],[125.4314681,43.7868599],[125.4316062,43.7877337],[125.4321769,43.78859],[125.4349291,43.790718],[125.4388512,43.7945617],[125.4435414,43.7986408]],[[125.444755,43.7997165],[125.4453568,43.80058],[125.4453735,43.8012855],[125.4426035,43.8064925]]]}},{"type":"Feature","properties":{"layer":"trunk","name":"北亚泰大街"},"geometry":{"type":"MultiLineString","coordinates":[[[125.3022365,43.9807007],[125.3058403,43.9777329],[125.3090209,43.9756327]],[[125.3091113,43.9756952],[125.3059454,43.9777987],[125.3025367,43.9809292]],[[125.3109801,43.9745172],[125.313536,43.9732775],[125.3194985,43.9710846],[125.3214012,43.9699522],[125.3225693,43.9687529],[125.3233474,43.9673287],[125.3236268,43.9653479],[125.3221468,43.9603058]],[[125.3221468,43.9603058],[125.321723,43.9589035],[125.3215604,43.95725],[125.3217634,43.9557651],[125.3223341,43.9542186]],[[125.3223608,43.9602688],[125.3235935,43.9642822],[125.3238023,43.9657094],[125.3235642,43.9672428],[125.3225977,43.9689745],[125.3215278,43.9700322],[125.3194069,43.9712689],[125.3150046,43.9728462],[125.3110658,43.9745926]]]}},{"type":"Feature","properties":{"layer":"trunk","name":"北四环路"},"geometry":{"type":"MultiLineString","coordinates":[[[125.2278869,43.9246519],[125.2279712,43.931382],[125.2286166,43.9337225],[125.2302367,43.9366507],[125.2320987,43.9386572],[125.2333661,43.9396788],[125.2364251,43.9414209],[125.2380528,43.9420739],[125.2504585,43.9456195],[125.2733518,43.9558803]],[[125.2732328,43.9560468],[125.2502781,43.9458046],[125.2373379,43.9420394],[125.23357,43.9400232],[125.2319426,43.938767],[125.2302359,43.9369967],[125.2290604,43.9352818],[125.2281844,43.9333887],[125.227753,43.931337],[125.2276444,43.9246859]],[[125.330446,43.973521],[125.3473952,43.9735347]],[[125.3473972,43.9737035],[125.3303737,43.9737046]],[[125.3649767,43.9736387],[125.3484312,43.9736958]]]}},{"type":"Feature","properties":{"layer":"trunk","name":"北四环路辅路"},"geometry":{"type":"MultiLineString","coordinates":[[[125.22759,43.9315805],[125.2275089,43.9309255]],[[125.2280864,43.9304584],[125.2282124,43.9317891]]]}},{"type":"Feature","properties":{"layer":"trunk","name":"北环城路"},"geometry":{"type":"MultiLineString","coordinates":[[[125.3241452,43.9517505],[125.3254244,43.9507204],[125.326477,43.9501928]],[[125.326477,43.9501928],[125.3269217,43.9496038]],[[125.3269217,43.9496038],[125.3269624,43.9492856],[125.326749,43.9490844],[125.3260479,43.9492014],[125.326057,43.9495863],[125.3266784,43.949833]],[[125.3272889,43.9494376],[125.3276788,43.9499424]],[[125.3286093,43.9474068],[125.3274469,43.9487961],[125.3272889,43.9494376]]]}},{"type":"Feature","properties":{"layer":"trunk","name":"北部快速路"},"geometry":{"type":"MultiLineString","coordinates":[[[125.297603,43.9213694],[125.2916294,43.9215683],[125.2868956,43.9220124],[125.279969,43.9219537]],[[125.3087474,43.9194001],[125.3117223,43.9191336],[125.3138614,43.9186969],[125.3226651,43.9158359],[125.3268922,43.9146606]],[[125.3268922,43.9146606],[125.3296143,43.9138563],[125.331386,43.9136205],[125.3448023,43.9138346]],[[125.3269799,43.914727],[125.313009,43.9190463],[125.3087771,43.9195008]],[[125.3448074,43.9139509],[125.3320963,43.9136871],[125.3305547,43.913793],[125.3269799,43.914727]]]}},{"type":"Feature","properties":{"layer":"trunk","name":"北青年路"},"geometry":{"type":"LineString","coordinates":[[125.1711273,44.0872187],[125.1723744,44.0824075],[125.1733559,44.0784428],[125.1744733,44.0731074],[125.1752583,44.0690937],[125.1766265,44.0619234],[125.1826365,44.0527908],[125.1905,44.043],[125.202,44.0305],[125.213,44.018]]}},{"type":"Feature","properties":{"layer":"trunk","name":"南四环路"},"geometry":{"type":"MultiLineString","coordinates":[[[125.3236714,43.8060394],[125.3278011,43.8060011],[125.3327938,43.8052088]],[[125.3328379,43.8053737],[125.3278408,43.8061402],[125.3236811,43.8061736]],[[125.3403104,43.8039173],[125.3457451,43.8030335],[125.3500903,43.8030333],[125.3527099,43.8034842],[125.3550318,43.8041776],[125.3578679,43.8056408]],[[125.3577806,43.8057431],[125.3554942,43.8045851],[125.3536151,43.8038916],[125.3496654,43.8031389],[125.3459494,43.8031767],[125.3403704,43.8040916]],[[125.3675961,43.8137618],[125.3748203,43.8193116]]]}},{"type":"Feature","properties":{"layer":"trunk","name":"南部快速路"},"geometry":{"type":"MultiLineString","coordinates":[[[125.2827232,43.8303083],[125.2723151,43.8299726],[125.2707897,43.8296265],[125.2679884,43.8282916]],[[125.3069128,43.8303978],[125.3256504,43.830507]],[[125.3256526,43.8306218],[125.3069138,43.8305138]],[[125.3523402,43.83082],[125.3734034,43.8310476]],[[125.3733911,43.8311257],[125.3523411,43.8309291]]]}},{"type":"Feature","properties":{"layer":"trunk","name":"卫星路"},"geometry":{"type":"MultiLineString","coordinates":[[[125.3889554,43.8299606],[125.3968782,43.8363042]],[[125.3964075,43.8366473],[125.3907483,43.8320308]]]}},{"type":"Feature","properties":{"layer":"trunk","name":"吉林大路"},"geometry":{"type":"MultiLineString","coordinates":[[[125.3774571,43.8797413],[125.3819671,43.8798975]],[[125.4334254,43.8827226],[125.4354805,43.8835479],[125.4387798,43.8852268]],[[125.4383585,43.8855157],[125.4358315,43.8840288],[125.4333316,43.8829122]],[[125.4387798,43.8852268],[125.4432892,43.8880284]],[[125.4426152,43.8885684],[125.4383585,43.8855157]]]}},{"type":"Feature","properties":{"layer":"trunk","name":"吉林快速路"},"geometry":{"type":"MultiLineString","coordinates":[[[125.3819671,43.8798975],[125.3949892,43.8800653],[125.4090579,43.8795788]],[[125.4090579,43.8795788],[125.4147853,43.8794486]],[[125.4090833,43.8797219],[125.394566,43.8801553],[125.3819659,43.8800022]],[[125.4147853,43.8794486],[125.4209281,43.8792466],[125.4238182,43.8798996]],[[125.4237011,43.8799973],[125.4206139,43.8793621],[125.414775,43.8795924]]]}},{"type":"Feature","properties":{"layer":"trunk","name":"新城大街快速路"},"geometry":{"type":"MultiLineString","coordinates":[[[125.3878028,43.7610051],[125.3891228,43.7594352],[125.3935255,43.7563083],[125.3944944,43.754966],[125.3948665,43.7540151]],[[125.3943716,43.7502498],[125.3938123,43.7484584],[125.3936551,43.7464633],[125.3940888,43.7444144],[125.3956386,43.7408836],[125.395839,43.738563],[125.3954339,43.7368245],[125.3921904,43.7279594],[125.3919736,43.7268117],[125.3920928,43.7259676],[125.3934844,43.7240717],[125.3955962,43.7228928],[125.3980315,43.7224649],[125.4025968,43.7224513]],[[125.3950556,43.7540493],[125.3945651,43.7552102],[125.3936951,43.7563574],[125.3928684,43.7570876],[125.3894019,43.7593858],[125.3885699,43.7601394],[125.3879714,43.7610015]],[[125.4025968,43.7224513],[125.4065869,43.7221896],[125.4081033,43.7217159],[125.4098572,43.7207224]],[[125.4099406,43.7208198],[125.4086005,43.7216598],[125.4064445,43.7223681],[125.4042607,43.7225732],[125.397618,43.7225982],[125.3960898,43.7228607],[125.3940747,43.7237833],[125.3932443,43.724491],[125.3926239,43.7253358],[125.3921456,43.7270608],[125.3922459,43.7276347],[125.3955914,43.7368058],[125.3960074,43.738829],[125.3959964,43.7397785],[125.3956398,43.7414279],[125.394396,43.7440187],[125.3938524,43.7460374],[125.3939256,43.7482635],[125.3945435,43.7502292]]]}},{"type":"Feature","properties":{"layer":"trunk","name":"永春快速路"},"geometry":{"type":"MultiLineString","coordinates":[[[125.3426912,43.7217575],[125.345705,43.722112]],[[125.345705,43.722112],[125.3515482,43.7228508],[125.3613163,43.7233525]],[[125.3613162,43.7234941],[125.351516,43.723002],[125.3456656,43.722278]],[[125.3613163,43.7233525],[125.3745627,43.7236743],[125.3872972,43.7224256],[125.3936032,43.7228394],[125.3977175,43.7223476],[125.4025968,43.7224513]],[[125.4025741,43.7225671],[125.3946423,43.7230162],[125.3873491,43.722572],[125.3745482,43.7238517],[125.3613162,43.7234941]]]}},{"type":"Feature","properties":{"layer":"trunk","name":"洋浦大街"},"geometry":{"type":"MultiLineString","coordinates":[[[125.4159794,43.8990976],[125.4159112,43.8841571]],[[125.4161318,43.9032611],[125.4162303,43.9098171],[125.4166558,43.9145914],[125.4194264,43.9271683]],[[125.416158,43.8840229],[125.4161246,43.8991019]],[[125.4164704,43.8496871],[125.4160049,43.8627259],[125.4160083,43.8727208]],[[125.4172495,43.9187082],[125.4165007,43.9148957],[125.4160807,43.9113667],[125.4159754,43.9054828]]]}},{"type":"Feature","properties":{"layer":"trunk","name":"珲阿线"},"geometry":{"type":"MultiLineString","coordinates":[[[125.1710448,44.0874482],[125.1717245,44.0853526],[125.1733559,44.0784428],[125.1773962,44.0578322],[125.1782286,44.0561012],[125.1883316,44.0483524],[125.2065955,44.0323862],[125.212491,44.0267017],[125.2232893,44.0161767],[125.2290242,44.0089497],[125.2340849,44.0030589],[125.2403957,43.9961068],[125.2426032,43.9939453]],[[125.2426032,43.9939453],[125.2428319,43.993735]],[[125.2427374,43.9940301],[125.2402648,43.9964805],[125.2342432,44.0031286],[125.2291639,44.0090322],[125.223411,44.0162434],[125.2126044,44.0267829],[125.2066727,44.0324703],[125.1884446,44.0484473],[125.1787724,44.0557608],[125.1781875,44.0563967],[125.1776294,44.0576123],[125.1746364,44.0731254],[125.1725378,44.08244],[125.1715547,44.0864568],[125.1710448,44.0874482]],[[125.2428319,43.993735],[125.2465158,43.990339]],[[125.2429661,43.9938252],[125.2427374,43.9940301]]]}},{"type":"Feature","properties":{"layer":"trunk","name":"盛世大路"},"geometry":{"type":"MultiLineString","coordinates":[[[125.2699881,43.8020409],[125.282698,43.80193]],[[125.2826972,43.802061],[125.2699857,43.8021599]],[[125.282698,43.80193],[125.2903712,43.8021335],[125.2982379,43.8032785]],[[125.2981949,43.8034118],[125.2916985,43.8024588],[125.2861835,43.8020763],[125.2826972,43.802061]],[[125.3078166,43.8050129],[125.2997581,43.8036822]]]}},{"type":"Feature","properties":{"layer":"trunk","name":"营口路"},"geometry":{"type":"LineString","coordinates":[[125.4038324,43.845348],[125.4166051,43.8455154]]}},{"type":"Feature","properties":{"layer":"trunk","name":"西四环路"},"geometry":{"type":"MultiLineString","coordinates":[[[125.1754054,43.8612033],[125.176953,43.8686829],[125.177943,43.8708915],[125.1789176,43.8721673],[125.1814314,43.8741238],[125.1956563,43.8831328],[125.1976078,43.8851191],[125.1989257,43.8876963]],[[125.1987071,43.887746],[125.1973929,43.8851591],[125.195538,43.8832414],[125.1811236,43.8741929],[125.1787451,43.8723273],[125.1776359,43.8709235],[125.1766168,43.8686251],[125.1751358,43.861229]],[[125.2005661,43.890974],[125.2018905,43.8924296],[125.2034858,43.8936004],[125.2172135,43.9024483],[125.2229317,43.9070928]],[[125.2167635,43.9024617],[125.2033036,43.8936927],[125.2017145,43.892497],[125.2003568,43.8910329]],[[125.2252552,43.9093569],[125.2269836,43.9121554],[125.2277368,43.9147135],[125.2278869,43.9246519]]]}},{"type":"Feature","properties":{"layer":"trunk","name":"西湖大路"},"geometry":{"type":"MultiLineString","coordinates":[[[125.1742977,43.8571427],[125.1743168,43.8551027],[125.1756076,43.848768],[125.1767086,43.8437958],[125.177672,43.8414827],[125.1787186,43.8369135]],[[125.1787186,43.8369135],[125.1798344,43.8340539],[125.1810039,43.8320262],[125.1831378,43.8293523]],[[125.1789547,43.8369522],[125.1779127,43.8415644],[125.1769514,43.8438632],[125.174979,43.8532296]],[[125.1861891,43.8256563],[125.1934057,43.8170292]],[[125.1935588,43.8171315],[125.1864421,43.8257211]]]}},{"type":"Feature","properties":{"layer":"trunk","name":"西部快速路"},"geometry":{"type":"MultiLineString","coordinates":[[[125.2627781,43.863652],[125.2651243,43.8614189],[125.2796088,43.8507788],[125.282344,43.8485493],[125.2826808,43.8480023],[125.2829922,43.8468331],[125.283301,43.8355857]],[[125.2730244,43.8794528],[125.2754329,43.8829354],[125.2784848,43.8879155],[125.283819,43.8957102],[125.2842538,43.8966025],[125.2845469,43.8978218],[125.2862454,43.9131571],[125.2869266,43.9217706]],[[125.2834077,43.8359278],[125.2831203,43.8470689],[125.2824807,43.8486103],[125.2797188,43.8508503],[125.2645054,43.8620455],[125.2631767,43.8633579],[125.2624926,43.8645314],[125.2626598,43.8654639],[125.2636152,43.8663019]],[[125.2867611,43.9217672],[125.285658,43.9091936],[125.2841073,43.8966093],[125.2837245,43.8957715],[125.2728672,43.879494]],[[125.2869452,43.9220951],[125.2884722,43.9462727],[125.288312,43.9483668]]]}},{"type":"Feature","properties":{"layer":"trunk","name":"超达大路"},"geometry":{"type":"MultiLineString","coordinates":[[[125.2030915,43.808429],[125.2050348,43.8073424],[125.207228,43.8064997],[125.2095089,43.805923],[125.212033,43.805554]],[[125.2241327,43.803852],[125.2328303,43.8026083],[125.2363542,43.8023324],[125.2422011,43.8022377]],[[125.2422011,43.8022377],[125.2699881,43.8020409]],[[125.2423299,43.8023338],[125.2342552,43.802709],[125.2241681,43.8039677]],[[125.2699857,43.8021599],[125.2423299,43.8023338]]]}},{"type":"Feature","properties":{"layer":"trunk","name":"远达大街"},"geometry":{"type":"MultiLineString","coordinates":[[[125.369214,43.925568],[125.3691254,43.9290282],[125.3695318,43.9303402],[125.3706525,43.9312857],[125.3737492,43.9323159]],[[125.3736924,43.9324349],[125.3705677,43.9313821],[125.3693978,43.9304046],[125.3689781,43.9290218],[125.3690498,43.9255614]],[[125.3737492,43.9323159],[125.375673,43.9328145]],[[125.3755654,43.9329701],[125.3736924,43.9324349]]]}},{"type":"Feature","properties":{"layer":"trunk","name":"长伊公路"},"geometry":{"type":"MultiLineString","coordinates":[[[125.2892693,43.7225847],[125.2893115,43.6893651],[125.2895221,43.6845004],[125.2900318,43.6813626],[125.2909944,43.6772979],[125.2930118,43.6710775],[125.2938108,43.6673356],[125.2944024,43.6632346],[125.294427,43.6577692],[125.2940326,43.6543274],[125.2925537,43.6467388],[125.2922579,43.6426721],[125.292413,43.6400445],[125.2927794,43.637895],[125.2954253,43.6295961],[125.2960784,43.6261617],[125.2961277,43.6234407],[125.295633,43.6154698]],[[125.2893089,43.7673476],[125.2892727,43.7233041]],[[125.2895103,43.7233522],[125.2895398,43.7673433]],[[125.2948212,43.6],[125.2957744,43.6148176]],[[125.2958178,43.6155434],[125.2963063,43.6234349],[125.2960475,43.6278151],[125.2929687,43.6379609],[125.2925193,43.6426771],[125.2927166,43.6467396],[125.2942718,43.6543264],[125.2946208,43.6577679],[125.2946132,43.663294],[125.2932289,43.6711601],[125.2912145,43.6773419],[125.290212,43.6814005],[125.2897588,43.6845365],[125.2895113,43.6894069],[125.2895093,43.7226298]]]}},{"type":"Feature","properties":{"layer":"trunk","name":"长双快速路"},"geometry":{"type":"MultiLineString","coordinates":[[[125.423863,43.6826645],[125.4296425,43.6765902],[125.4308516,43.6749495],[125.4327713,43.6714307],[125.4354248,43.6648306],[125.4382729,43.6606124]],[[125.438526,43.6602935],[125.4401632,43.6584306],[125.4419855,43.6567613],[125.4459463,43.6538646],[125.4559257,43.648484],[125.4758732,43.6345749]],[[125.4758732,43.6345749],[125.4789474,43.6317944],[125.4849518,43.6249647],[125.503156,43.6036378],[125.5057502,43.6]],[[125.4759254,43.6346732],[125.4560137,43.6485598],[125.4460359,43.6539395],[125.4420876,43.6568271],[125.4402745,43.6584881],[125.4386523,43.6603329]],[[125.5058821,43.6],[125.5032742,43.603687],[125.4850674,43.625017],[125.4790592,43.6318509],[125.4759254,43.6346732]]]}},{"type":"Feature","properties":{"layer":"trunk","name":"长吉南线"},"geometry":{"type":"MultiLineString","coordinates":[[[125.4224521,43.877568],[125.4238512,43.8761962],[125.4367257,43.8606351],[125.4384296,43.8595588],[125.4404451,43.8591311]],[[125.4405444,43.8592322],[125.4384328,43.8596507],[125.4368412,43.8606684],[125.4236682,43.8765531]]]}},{"type":"Feature","properties":{"layer":"trunk","name":"长沈路"},"geometry":{"type":"MultiLineString","coordinates":[[[125.1647949,43.7886742],[125.1806902,43.8022708],[125.1828993,43.8039353]],[[125.1828993,43.8039353],[125.1951815,43.8129583],[125.1958314,43.813112]],[[125.1952363,43.8134893],[125.1950843,43.8130285],[125.1805577,43.8023282],[125.1646101,43.7887422]]]}},{"type":"Feature","properties":{"layer":"trunk","name":"长泰大桥"},"geometry":{"type":"MultiLineString","coordinates":[[[125.3319211,43.9110228],[125.3320189,43.9054298]],[[125.3321555,43.905436],[125.3320811,43.9110265]]]}},{"type":"Feature","properties":{"layer":"trunk","name":"青年路 QingnianRd"},"geometry":{"type":"LineString","coordinates":[[125.28326,43.9564425],[125.2839878,43.9555583]]}},{"type":"Feature","properties":{"layer":"trunk","name":"青年路"},"geometry":{"type":"MultiLineString","coordinates":[[[125.2465158,43.990339],[125.2536284,43.9837889]],[[125.2466546,43.9904025],[125.2429661,43.9938252]],[[125.2536284,43.9837889],[125.2674266,43.9702734],[125.277331,43.9629086],[125.2791563,43.9609015]],[[125.2791563,43.9609015],[125.2800303,43.9598996]],[[125.2801654,43.9599781],[125.2774596,43.9629967],[125.2682108,43.9697711],[125.2559653,43.981792],[125.2466546,43.9904025]]]}},{"type":"Feature","properties":{"layer":"trunk","name":"龙东线"},"geometry":{"type":"MultiLineString","coordinates":[[[125.15,43.942812],[125.1559943,43.9394431],[125.158351,43.9385487],[125.1606157,43.9381395],[125.1668229,43.9377621],[125.1700328,43.9368644],[125.1835734,43.9300767],[125.1863963,43.9291252],[125.2024997,43.9264228],[125.2052718,43.9267082],[125.2123831,43.929214],[125.213877,43.9295756],[125.2162686,43.92962],[125.2213965,43.9291146]],[[125.2213368,43.9292379],[125.2165593,43.9296784],[125.2139766,43.9296745],[125.2124685,43.9293253],[125.2054075,43.9268425],[125.2027097,43.9264894],[125.1865423,43.9291718],[125.1837908,43.930066],[125.1734889,43.9353173],[125.1695268,43.93715],[125.1667254,43.9378714],[125.1614527,43.9381439],[125.158375,43.9386389],[125.1560495,43.9395101],[125.15,43.942912]],[[125.44464,43.7650653],[125.4453342,43.763195],[125.4463583,43.7617573],[125.4471252,43.7601178],[125.4495753,43.7577199],[125.4522233,43.7528551],[125.4529415,43.7520935],[125.465951,43.7414208],[125.468973,43.7355638],[125.469553,43.7348882],[125.4720275,43.7328985],[125.4732445,43.7315256],[125.4757624,43.7258988],[125.4842642,43.7170602],[125.4881052,43.7123153],[125.4924659,43.7055043],[125.4961196,43.702284],[125.4982819,43.6989622],[125.4993218,43.6977424],[125.5173403,43.6840239],[125.5279675,43.6787205],[125.5289386,43.678069],[125.5377625,43.666301],[125.5389991,43.665047],[125.5403712,43.6643635],[125.5533359,43.6605209],[125.5544458,43.6600395],[125.5554602,43.6592042],[125.5865653,43.6121111],[125.5870171,43.6104978],[125.5868035,43.6085601],[125.5827704,43.6]],[[125.5828733,43.6],[125.5868929,43.6085615],[125.5871459,43.6099775],[125.5867266,43.6119718],[125.5556401,43.6591299],[125.5547952,43.6599061],[125.553704,43.6604747],[125.5405472,43.6643912],[125.5391188,43.6650731],[125.5381624,43.6659299],[125.5288943,43.6782113],[125.517473,43.684032],[125.4994122,43.697778],[125.4982569,43.6991751],[125.4962594,43.7022468],[125.4923824,43.705762],[125.4882238,43.7123234],[125.4841596,43.7173185],[125.4756934,43.7261136],[125.4732935,43.7316358],[125.4720916,43.732966],[125.4694978,43.7350706],[125.4690025,43.7356714],[125.4663576,43.7410105],[125.46588,43.7416285],[125.4530331,43.7521204],[125.4523912,43.7528129],[125.4497656,43.75761],[125.4471902,43.7602155],[125.4463796,43.7618883],[125.4453677,43.7633152],[125.4447217,43.7650791]]]}},{"type":"Feature","properties":{"layer":"trunk","name":"龙湖大路"},"geometry":{"type":"MultiLineString","coordinates":[[[125.3797868,43.9733119],[125.380451,43.973509],[125.4287831,43.9734838],[125.4319908,43.9740167]],[[125.4319824,43.9742059],[125.4301523,43.9737945],[125.4279146,43.973619],[125.3805359,43.9736789],[125.3797988,43.9738749]]]}},{"type":"Feature","properties":{"layer":"waterway","name":null},"geometry":{"type":"MultiLineString","coordinates":[[[125.1799049,43.6268727],[125.1796843,43.6276078],[125.1798521,43.6280243],[125.1804155,43.6283888],[125.1804035,43.6286317],[125.1800199,43.6287792],[125.1796603,43.6292738],[125.179013,43.6296642],[125.179049,43.6304538],[125.1787014,43.6309049],[125.178066,43.6312954],[125.17809,43.6317205],[125.1787133,43.6321109],[125.1785575,43.6322411],[125.1777664,43.6323625],[125.1776345,43.6325621],[125.1769272,43.6328918],[125.1766515,43.6331868],[125.1770351,43.6337854],[125.1766755,43.635],[125.1768673,43.6352603],[125.1775146,43.6355553],[125.1777903,43.6360932],[125.1776465,43.6368132],[125.1770252,43.6375636],[125.177964,43.638854],[125.1787063,43.6396071],[125.1791284,43.6396492],[125.1792157,43.6398441],[125.17883,43.6403392],[125.179041,43.6408184],[125.1789392,43.6410975],[125.1779567,43.642035],[125.1786262,43.6424352],[125.178699,43.6425774],[125.1785316,43.6429355],[125.1778912,43.6431304],[125.1778912,43.6434569],[125.1776219,43.6438887],[125.1765376,43.6441362],[125.1765376,43.6443363],[125.1769452,43.6446786],[125.1770834,43.6450315],[125.1769306,43.6458688],[125.1772508,43.6465112],[125.1772362,43.6467061],[125.1768433,43.6469588],[125.176916,43.6480436],[125.1760573,43.6485597],[125.1759409,43.6488651],[125.1757153,43.6489494],[125.1753587,43.6494917],[125.1747619,43.6496655],[125.1748493,43.6499709],[125.174791,43.6501973],[125.1746091,43.6503132],[125.1741142,43.6503869],[125.1734229,43.6501815],[125.1733137,43.6505185],[125.1736485,43.6508713],[125.1725278,43.651361],[125.1716035,43.6522299],[125.1707157,43.652193],[125.1697114,43.6518823],[125.1689255,43.6523036],[125.1682341,43.652451],[125.1664439,43.6521087],[125.1653814,43.6524826],[125.1647264,43.6523983],[125.1639623,43.6521509],[125.1629653,43.6520508],[125.1624631,43.6516612],[125.1622084,43.6516243],[125.161619,43.6518771],[125.1609349,43.6511925],[125.1598942,43.6508819],[125.1595886,43.6505554],[125.1591665,43.6505291],[125.1590137,43.6506554],[125.1588608,43.6512136],[125.158053,43.6515506],[125.1580021,43.6517138],[125.1573399,43.6522193],[125.1568959,43.6524036],[125.1569469,43.6527775],[125.1574781,43.6530513],[125.1574854,43.6531829],[125.1569542,43.6534725],[125.1570924,43.6538937],[125.1564593,43.6542623],[125.1564666,43.6546993],[125.1555278,43.6549047],[125.155324,43.6556734],[125.1547491,43.6559998],[125.1541596,43.656579],[125.154116,43.6570213],[125.1536939,43.6571529],[125.1537667,43.6574004],[125.1541887,43.657611],[125.1543634,43.6579163],[125.1536648,43.657969],[125.1528279,43.6578005],[125.1524018,43.658108]],[[125.1870175,43.6428276],[125.1846786,43.6506221],[125.1847215,43.6511655],[125.1852365,43.651771],[125.185494,43.6535254],[125.1866313,43.6548916],[125.1869102,43.6557921],[125.1871892,43.6561491],[125.1883908,43.6566148],[125.1893778,43.6572513],[125.1917167,43.6595334],[125.1919742,43.6598438],[125.1919098,43.6602475],[125.191588,43.6608684],[125.1917596,43.6611168],[125.1935835,43.6618463],[125.1984973,43.6650751],[125.199184,43.6656959],[125.2063723,43.6686451],[125.2082177,43.6702748],[125.2125307,43.6755516],[125.2120586,43.6771191],[125.2116509,43.6779416],[125.2102132,43.6797107],[125.2100416,43.6802694],[125.2100201,43.6822402],[125.2105351,43.6828919],[125.211093,43.6833109],[125.2111145,43.6840092],[125.211608,43.6850178],[125.2117367,43.6868333],[125.2101489,43.6893469],[125.2087756,43.6906192],[125.2075954,43.6911157],[125.2071877,43.6915812],[125.2065011,43.6937843],[125.2066513,43.6946842],[125.2071662,43.6958943],[125.2071233,43.6993849],[125.2069302,43.7004243],[125.2021666,43.7041783],[125.1996627,43.706648],[125.1970475,43.7096997],[125.1936851,43.7140542],[125.1933863,43.7142905],[125.1930313,43.714412],[125.1928352,43.7143513],[125.1929006,43.713872],[125.1927885,43.7136829],[125.1923122,43.7136357],[125.192088,43.7140407],[125.1912474,43.7142973],[125.1909766,43.7146281],[125.1819074,43.7156272],[125.174342,43.7167275],[125.1708956,43.7194885],[125.1637785,43.7235925],[125.1596222,43.7254825],[125.15,43.7293901]],[[125.2897164,43.6877351],[125.2903113,43.6878671],[125.291956,43.6887617],[125.2926619,43.6889248],[125.2940519,43.6897089],[125.2949179,43.6897562],[125.2970387,43.6904922],[125.3010382,43.6931398],[125.3063216,43.7004008],[125.3065763,43.7005744],[125.3067,43.7007901],[125.3065472,43.7012583],[125.3067437,43.701695],[125.3077698,43.7022001],[125.309218,43.7041414],[125.3096401,43.7045044],[125.309855,43.705505],[125.3104005,43.7060369],[125.3101102,43.7066773],[125.3102704,43.7072417],[125.3102354,43.7078568],[125.30986,43.7079436],[125.3097348,43.7082584],[125.3102304,43.7090435],[125.3105557,43.710469],[125.3105507,43.7117534],[125.310811,43.7121115],[125.312743,43.7136274],[125.312763,43.7149117],[125.313729,43.7152409],[125.3138942,43.7157474],[125.313759,43.71612],[125.3139692,43.7168797],[125.3139192,43.7171184],[125.3133236,43.7179251],[125.3127179,43.7183122],[125.3112414,43.7188693],[125.3104906,43.7189416],[125.3095497,43.7192383],[125.3096097,43.7198098],[125.3093494,43.7201462],[125.3088696,43.7213757],[125.3090698,43.7218893],[125.3085793,43.7230541],[125.3080337,43.7231915],[125.3078736,43.7230324],[125.3075432,43.7229781],[125.3071778,43.7232675],[125.3061368,43.7236039],[125.3058014,43.7238498],[125.3049705,43.7233398],[125.3045952,43.7233868],[125.3041347,43.723177],[125.3037493,43.7231734],[125.3034039,43.7233145],[125.3023679,43.7233036],[125.3022728,43.7237196],[125.3016771,43.7241464],[125.2999353,43.7243671],[125.2997351,43.7242441],[125.2994448,43.7237088],[125.2988993,43.7235749],[125.296742,43.7236437],[125.2911362,43.7233181],[125.2905957,43.7231517],[125.2903154,43.7229021],[125.2883283,43.722714],[125.2794525,43.7225959],[125.2800316,43.7334556],[125.2798261,43.7336311],[125.2798261,43.7345287],[125.2801156,43.7351636]],[[125.4069817,43.7383532],[125.4067578,43.7384644],[125.4069257,43.7387576],[125.4064639,43.739152],[125.4056523,43.7393744],[125.4036231,43.7396777],[125.4032173,43.7398395],[125.4027555,43.7398395],[125.4021398,43.739617],[125.401552,43.7398294],[125.4010203,43.7398496],[125.4001107,43.7406786],[125.399411,43.7409819],[125.3988512,43.7410224],[125.3967381,43.7424782],[125.3961224,43.7433174],[125.3960104,43.7447428],[125.3950588,43.7463603],[125.3924839,43.7462188],[125.3882998,43.7472399],[125.3875301,43.7477554],[125.3874881,43.7484529],[125.3864945,43.7490898],[125.3861587,43.7495346],[125.3856689,43.7497064],[125.3844234,43.7495245],[125.3839896,43.7491707],[125.3838637,43.748362],[125.382996,43.7475431],[125.3822264,43.7462795],[125.3818485,43.7460368],[125.3814567,43.7459762],[125.3799034,43.7465524],[125.3788398,43.7465625],[125.3777903,43.7469265],[125.3774125,43.7469063],[125.3769087,43.7467344],[125.3759011,43.7467445],[125.3749775,43.7457942],[125.3744457,43.7456628],[125.3732003,43.7456729],[125.371605,43.7452685],[125.3704994,43.7444901],[125.3617952,43.7426602],[125.3611235,43.7429837],[125.3609835,43.7435701],[125.3606337,43.7436611],[125.3592483,43.7436207],[125.3592483,43.7421345],[125.3591503,43.7418514],[125.348235,43.7385352],[125.3476519,43.7385859]],[[125.4917479,43.9371202],[125.4917479,43.939797],[125.4934169,43.9438066],[125.4941301,43.9467453],[125.4941452,43.9473352],[125.4949494,43.9514643],[125.4954501,43.9523273],[125.4952984,43.9533978],[125.494646,43.9559428],[125.4935838,43.9583348],[125.4934018,43.9593396],[125.4862705,43.9646474],[125.4861795,43.9659797],[125.4864374,43.9666568],[125.4864526,43.9709048],[125.4854664,43.9717893],[125.4851022,43.9737438],[125.4852843,43.9742352],[125.4881216,43.9762334],[125.488243,43.977358],[125.4875299,43.9810811],[125.4865892,43.9818236],[125.4860733,43.9819873],[125.4829173,43.9818672],[125.4824773,43.9822057],[125.4792607,43.9866054],[125.4792455,43.987577],[125.4799434,43.9892035],[125.4802924,43.9905026],[125.4802924,43.9909392],[125.4811573,43.9938101],[125.4816125,43.9950435],[125.4828111,43.9966481],[125.4832208,43.9974885],[125.4830842,43.9990275],[125.4835759,44.001059]]]}},{"type":"Feature","properties":{"layer":"waterway","name":"伊通河"},"geometry":{"type":"MultiLineString","coordinates":[[[125.3277666,43.9888918],[125.3263662,43.989184],[125.3242605,43.9899668],[125.3224201,43.9913533],[125.3209241,43.9930138],[125.3205655,43.993651],[125.3204143,43.9945262],[125.3206871,43.997402],[125.3203282,44.0000743],[125.3200871,44.0004056],[125.3178379,44.0011131],[125.3174474,44.0014049],[125.3173695,44.0018719],[125.3174683,44.0023445],[125.318407,44.0040881],[125.3183952,44.0045462],[125.3171161,44.0069788],[125.3164124,44.0099262],[125.3156976,44.0108904],[125.3123654,44.0133236],[125.311994,44.0137194],[125.3115759,44.0142351],[125.3112604,44.0148928],[125.3107124,44.0166097],[125.3105921,44.0182739],[125.3107795,44.0189402],[125.3122245,44.0215079]],[[125.3322897,43.7868517],[125.3324014,43.7870126],[125.3322793,43.7873987],[125.3316386,43.7881082],[125.33088,43.7883602],[125.3303186,43.7893131],[125.3308952,43.7905836],[125.3316659,43.7931273],[125.3314391,43.7947157],[125.331783,43.7956168],[125.3316736,43.797493],[125.3318242,43.7978991],[125.3322699,43.7984825],[125.3330497,43.7990496],[125.3345382,43.7997968],[125.3350005,43.8003256],[125.3354167,43.8012837],[125.3355229,43.8037366],[125.3361829,43.8055051],[125.3386637,43.808259],[125.3411368,43.8101861],[125.3417605,43.8110359],[125.3414341,43.8134828],[125.3416455,43.8159576],[125.3413538,43.8176941],[125.3411966,43.819759],[125.3414198,43.8209351],[125.3421111,43.8227496],[125.3438364,43.8254738],[125.3464665,43.8278514],[125.3496588,43.8300764],[125.3515715,43.8344132],[125.3510454,43.835929],[125.3485589,43.8377904],[125.3482482,43.8386951],[125.3487075,43.8399114],[125.3499651,43.8410561],[125.3523674,43.8443936]],[[125.3353298,43.6],[125.3469114,43.6210037],[125.3535528,43.6665779],[125.3534966,43.6912988],[125.348302,43.6981792],[125.3462681,43.700431],[125.3460837,43.7011175]],[[125.3460837,43.7011175],[125.3450216,43.7024545],[125.3444032,43.7036125],[125.3438892,43.7048328],[125.3439482,43.7052075],[125.3445539,43.706324],[125.3445446,43.7065948],[125.34568,43.7079077],[125.3463279,43.7084419],[125.3471959,43.7107056],[125.3475383,43.7110896],[125.3493384,43.7124158],[125.3509164,43.7138749],[125.3512532,43.7146616],[125.351699,43.7196223],[125.3525389,43.7218801],[125.3525275,43.7226067],[125.3522287,43.7240402],[125.3516809,43.7247347],[125.3513363,43.7258262],[125.3506627,43.7268479],[125.3481479,43.7278041]],[[125.3563498,43.9362781],[125.3571237,43.9378581],[125.3586554,43.9399702],[125.3593809,43.9422919],[125.3586165,43.9443493],[125.3562945,43.9471113],[125.3545732,43.9497267],[125.3535077,43.9523747],[125.3534289,43.9538932],[125.3536603,43.9552198],[125.3540998,43.95685],[125.3549512,43.9589655],[125.3553334,43.9605884],[125.3552888,43.9617394],[125.3549787,43.9628169],[125.3545261,43.9633936],[125.3539299,43.9638178],[125.3496354,43.9650398],[125.3483643,43.9654914],[125.3473472,43.9660164],[125.3465939,43.9666408],[125.345878,43.9674573],[125.3451077,43.9686448],[125.3439951,43.9724512],[125.3438634,43.9736331],[125.3451825,43.974671],[125.3465567,43.9767511],[125.3469317,43.977719],[125.3469699,43.978632],[125.3467896,43.9799403],[125.3460326,43.9817074],[125.3450425,43.9831774],[125.3436002,43.9844185],[125.339825,43.9863224],[125.3392139,43.9868561],[125.3388059,43.9870408],[125.3381051,43.9871617],[125.3361991,43.9870498],[125.3277666,43.9888918]]]}},{"type":"Feature","properties":{"layer":"waterway","name":"永春河"},"geometry":{"type":"MultiLineString","coordinates":[[[125.1931919,43.8260533],[125.1916026,43.8277029],[125.1908585,43.8279288],[125.189299,43.8280757],[125.1882471,43.8283995],[125.1864555,43.8292659],[125.1850589,43.8296335],[125.1841575,43.8297052],[125.1825301,43.8289919],[125.1811231,43.8290389],[125.1799116,43.8283999],[125.1797553,43.8275447],[125.1789086,43.8271218],[125.177928,43.8270525],[125.1771464,43.826686],[125.1758437,43.8259623],[125.1748667,43.8251447],[125.1725739,43.8246935],[125.1704506,43.8237913],[125.1649011,43.8250601],[125.1628855,43.8250095],[125.1603407,43.8257778],[125.1580058,43.8260629],[125.1573146,43.8259296],[125.1547265,43.8245122],[125.15,43.8234184]],[[125.2684822,43.7856367],[125.2679283,43.7866116],[125.2651691,43.789251],[125.2646086,43.790068],[125.2646729,43.7907728],[125.2659765,43.791677],[125.2662997,43.792468],[125.2669448,43.7931137],[125.2668858,43.7934602],[125.2666202,43.7938649],[125.2666041,43.7945173],[125.2671057,43.7954583],[125.2671486,43.7959597],[125.2670708,43.7962888],[125.2667892,43.7965986],[125.2653515,43.7968251],[125.264799,43.7970594],[125.2647775,43.7980041],[125.2641124,43.7986449],[125.2638844,43.7990863],[125.2641687,43.7999052],[125.2641553,43.8011733],[125.2644181,43.8026077],[125.2641088,43.8036877],[125.2641258,43.8044506],[125.2647078,43.8051881],[125.2648714,43.8055424],[125.26485,43.8058443],[125.2635196,43.8074839],[125.2634222,43.8078069],[125.2635399,43.8090262],[125.2634324,43.8095995],[125.2631763,43.8097679],[125.2625225,43.8107255],[125.260663,43.8123751],[125.259861,43.8126733],[125.2593622,43.8134865],[125.2592819,43.8150252],[125.2585252,43.8160709],[125.2584135,43.8164093],[125.2585348,43.8168058],[125.2592312,43.8175607],[125.2592662,43.8183066],[125.2589692,43.8187492],[125.2584135,43.8190917],[125.2551871,43.8200775],[125.2526206,43.8213652],[125.2521175,43.8218467],[125.2512941,43.8232943],[125.2507784,43.8238992],[125.2496874,43.8248424],[125.2488318,43.8253668],[125.2465358,43.8262763],[125.2439797,43.8267523],[125.2401532,43.8287818],[125.2387427,43.82906],[125.237179,43.828785],[125.2287756,43.8252623],[125.2270576,43.8249914],[125.2256253,43.825093],[125.2240294,43.8255941],[125.2216176,43.8272076],[125.219594,43.8282064],[125.2164367,43.8283155],[125.2144193,43.8281762],[125.2129488,43.8268455],[125.2126065,43.8266977],[125.2112564,43.8266641],[125.2095244,43.8271062],[125.2079964,43.8266008],[125.2069442,43.8264587],[125.2050068,43.8267212],[125.2036483,43.8267361],[125.2014867,43.8263077],[125.2004743,43.8262355],[125.193885,43.8259481],[125.1931919,43.8260533]],[[125.2686023,43.7854162],[125.2684822,43.7856367]],[[125.2736,43.7674982],[125.2718908,43.7683396],[125.2712685,43.7689361],[125.2709305,43.769769],[125.2704906,43.7732631],[125.2701902,43.7800182],[125.2698254,43.7824194],[125.2691307,43.7844802],[125.2686023,43.7854162]]]}}]}
